[{"OBJECT_NAME":"SKYKRAFT-1A","OBJECT_ID":"2023-001AX","EPOCH":"2026-03-09T17:03:19.828224","MEAN_MOTION":15.28083228,"ECCENTRICITY":0.00112767,"INCLINATION":97.3349,"RA_OF_ASC_NODE":127.629,"ARG_OF_PERICENTER":121.5092,"MEAN_ANOMALY":238.7251,"EPHEMERIS_TYPE":0,"CLASSIFICATION_TYPE":"U","NORAD_CAT_ID":55054,"ELEMENT_SET_NO":999,"REV_AT_EPOCH":17652,"BSTAR":0.0003006872,"MEAN_MOTION_DOT":8.177e-5,"MEAN_MOTION_DDOT":0},{"OBJECT_NAME":"STARLINK-31107","OBJECT_ID":"2023-211T","EPOCH":"2026-03-09T01:25:21.238176","MEAN_MOTION":15.27585804,"ECCENTRICITY":0.0001392,"INCLINATION":42.9994,"RA_OF_ASC_NODE":89.2231,"ARG_OF_PERICENTER":277.9362,"MEAN_ANOMALY":82.1331,"EPHEMERIS_TYPE":0,"CLASSIFICATION_TYPE":"U","NORAD_CAT_ID":58684,"ELEMENT_SET_NO":999,"REV_AT_EPOCH":12236,"BSTAR":-3.73663e-7,"MEAN_MOTION_DOT":-2.72e-6,"MEAN_MOTION_DDOT":0}]
